{
    "links": {
        "self": "http://www.neowsapp.com/rest/v1/neo/3991664?api_key=iIulBulltgU6a56xZRHN4H3l9WmuAYTsLGpBGhQ2"
    },
    "id": "3991664",
    "neo_reference_id": "3991664",
    "name": "(2020 DM1)",
    "designation": "2020 DM1",
    "nasa_jpl_url": "http://ssd.jpl.nasa.gov/sbdb.cgi?sstr=3991664",
    "absolute_magnitude_h": 23.718,
    "estimated_diameter": {
        "kilometers": {
            "estimated_diameter_min": 0.0479683717,
            "estimated_diameter_max": 0.1072605399
        },
        "meters": {
            "estimated_diameter_min": 47.9683717155,
            "estimated_diameter_max": 107.2605399258
        },
        "miles": {
            "estimated_diameter_min": 0.0298061551,
            "estimated_diameter_max": 0.066648589
        },
        "feet": {
            "estimated_diameter_min": 157.376552659,
            "estimated_diameter_max": 351.9046698101
        }
    },
    "is_potentially_hazardous_asteroid": false,
    "close_approach_data": [
        {
            "close_approach_date": "2019-08-09",
            "close_approach_date_full": "2019-Aug-09 15:18",
            "epoch_date_close_approach": 1565363880000,
            "relative_velocity": {
                "kilometers_per_second": "5.7940388609",
                "kilometers_per_hour": "20858.5398992567",
                "miles_per_hour": "12960.6855279576"
            },
            "miss_distance": {
                "astronomical": "0.4134370465",
                "lunar": "160.8270110885",
                "kilometers": "61849301.535490955",
                "miles": "38431373.887666979"
            },
            "orbiting_body": "Earth"
        },
        {
            "close_approach_date": "2020-01-21",
            "close_approach_date_full": "2020-Jan-21 04:23",
            "epoch_date_close_approach": 1579580580000,
            "relative_velocity": {
                "kilometers_per_second": "8.4393120672",
                "kilometers_per_hour": "30381.5234417952",
                "miles_per_hour": "18877.8971630421"
            },
            "miss_distance": {
                "astronomical": "0.072157792",
                "lunar": "28.069381088",
                "kilometers": "10794651.98710304",
                "miles": "6707485.714540352"
            },
            "orbiting_body": "Earth"
        }
    ],
    "orbital_data": {
        "orbit_id": "6",
        "orbit_determination_date": "2020-08-22 06:32:54",
        "first_observation_date": "2020-02-17",
        "last_observation_date": "2020-02-27",
        "data_arc_in_days": 10,
        "observations_used": 29,
        "orbit_uncertainty": "8",
        "minimum_orbit_intersection": ".0304917",
        "jupiter_tisserand_invariant": "4.937",
        "epoch_osculation": "2458899.5",
        "eccentricity": ".3236562822227871",
        "semi_major_axis": "1.303474438339296",
        "inclination": "3.853118722584945",
        "ascending_node_longitude": "210.6408122334693",
        "orbital_period": "543.5659016029036",
        "perihelion_distance": ".8815967476539641",
        "perihelion_argument": "211.7969909688597",
        "aphelion_distance": "1.725352129024628",
        "perihelion_time": "2458825.227503526095",
        "mean_anomaly": "49.19016930929386",
        "mean_motion": ".662293199294525",
        "equinox": "J2000",
        "orbit_class": {
            "orbit_class_type": "APO",
            "orbit_class_description": "Near-Earth asteroid orbits which cross the Earth’s orbit similar to that of 1862 Apollo",
            "orbit_class_range": "a (semi-major axis) > 1.0 AU; q (perihelion) < 1.017 AU"
        }
    },
    "is_sentry_object": false
}